{
  "type": "FeatureCollection",
  "features": [
    {
      "type": "Feature",
      "properties": {
        "norad_id": 32308,
        "name": "FENGYUN 1C DEB",
        "group": "fengyun-1c-debris",
        "lat": 41.12755936789271,
        "lon": -127.95568053743231,
        "alt_km": 879.4329742411828,
        "timestamp": "2025-12-19T04:59:48.591986+00:00",
        "meta_object_name": "FENGYUN 1C DEB",
        "meta_object_id": "1999-025CWZ",
        "meta_epoch": "2025-12-18T02:43:23.295648",
        "meta_mean_motion": 14.05525608,
        "meta_eccentricity": 0.01083328,
        "meta_inclination": 97.7739,
        "meta_ra_of_asc_node": 44.2538,
        "meta_arg_of_pericenter": 44.9982,
        "meta_mean_anomaly": 315.9904,
        "meta_ephemeris_type": 0,
        "meta_classification_type": "U",
        "meta_norad_cat_id": 32308,
        "meta_element_set_no": 999,
        "meta_rev_at_epoch": 65487,
        "meta_bstar": 0.0012185561,
        "meta_mean_motion_dot": 2.054e-05,
        "meta_mean_motion_ddot": 0,
        "tle_line1": "1 32308U 99025CWZ 25352.11346407  .00002054  00000+0  12186-2 0  9994",
        "tle_line2": "2 32308  97.7739  44.2538 0108332  44.9982 315.9904 14.05525608654876"
      },
      "geometry": {
        "type": "Point",
        "coordinates": [
          -127.95568053743231,
          41.12755936789271
        ]
      }
    },
    {
      "type": "Feature",
      "properties": {
        "norad_id": 32314,
        "name": "FENGYUN 1C DEB",
        "group": "fengyun-1c-debris",
        "lat": -77.3225189939489,
        "lon": 142.84260952274371,
        "alt_km": 718.8994515376044,
        "timestamp": "2025-12-19T04:59:48.591997+00:00",
        "meta_object_name": "FENGYUN 1C DEB",
        "meta_object_id": "1999-025CXF",
        "meta_epoch": "2025-12-18T13:08:32.417952",
        "meta_mean_motion": 14.79656862,
        "meta_eccentricity": 0.01487207,
        "meta_inclination": 98.8637,
        "meta_ra_of_asc_node": 98.1883,
        "meta_arg_of_pericenter": 139.4784,
        "meta_mean_anomaly": 221.7612,
        "meta_ephemeris_type": 0,
        "meta_classification_type": "U",
        "meta_norad_cat_id": 32314,
        "meta_element_set_no": 999,
        "meta_rev_at_epoch": 97516,
        "meta_bstar": 0.0010944124,
        "meta_mean_motion_dot": 9.852e-05,
        "meta_mean_motion_ddot": 0,
        "tle_line1": "1 32314U 99025CXF 25352.54759743  .00009852  00000+0  10944-2 0  9992",
        "tle_line2": "2 32314  98.8637  98.1883 0148720 139.4784 221.7612 14.79656862975164"
      },
      "geometry": {
        "type": "Point",
        "coordinates": [
          142.84260952274371,
          -77.3225189939489
        ]
      }
    },
    {
      "type": "Feature",
      "properties": {
        "norad_id": 32315,
        "name": "FENGYUN 1C DEB",
        "group": "fengyun-1c-debris",
        "lat": -66.72714301856051,
        "lon": -69.26314560403571,
        "alt_km": 1166.9714826538102,
        "timestamp": "2025-12-19T04:59:48.592007+00:00",
        "meta_object_name": "FENGYUN 1C DEB",
        "meta_object_id": "1999-025CXG",
        "meta_epoch": "2025-11-20T16:04:27.676128",
        "meta_mean_motion": 13.66155502,
        "meta_eccentricity": 0.02289149,
        "meta_inclination": 100.8052,
        "meta_ra_of_asc_node": 105.2905,
        "meta_arg_of_pericenter": 168.6,
        "meta_mean_anomaly": 192.0449,
        "meta_ephemeris_type": 0,
        "meta_classification_type": "U",
        "meta_norad_cat_id": 32315,
        "meta_element_set_no": 999,
        "meta_rev_at_epoch": 60787,
        "meta_bstar": 0.00024184327,
        "meta_mean_motion_dot": 1.85e-06,
        "meta_mean_motion_ddot": 0,
        "tle_line1": "1 32315U 99025CXG 25324.66976477  .00000185  00000+0  24184-3 0  9992",
        "tle_line2": "2 32315 100.8052 105.2905 0228914 168.6000 192.0449 13.66155502607872"
      },
      "geometry": {
        "type": "Point",
        "coordinates": [
          -69.26314560403571,
          -66.72714301856051
        ]
      }
    },
    {
      "type": "Feature",
      "properties": {
        "norad_id": 32316,
        "name": "FENGYUN 1C DEB",
        "group": "fengyun-1c-debris",
        "lat": 5.405953334816816,
        "lon": 19.620851439701404,
        "alt_km": 710.9277670840575,
        "timestamp": "2025-12-19T04:59:48.592018+00:00",
        "meta_object_name": "FENGYUN 1C DEB",
        "meta_object_id": "1999-025CXH",
        "meta_epoch": "2025-12-18T13:08:37.768704",
        "meta_mean_motion": 14.51941447,
        "meta_eccentricity": 0.00263471,
        "meta_inclination": 99.5292,
        "meta_ra_of_asc_node": 19.7832,
        "meta_arg_of_pericenter": 311.8098,
        "meta_mean_anomaly": 202.8399,
        "meta_ephemeris_type": 0,
        "meta_classification_type": "U",
        "meta_norad_cat_id": 32316,
        "meta_element_set_no": 999,
        "meta_rev_at_epoch": 95861,
        "meta_bstar": 0.0013297279,
        "meta_mean_motion_dot": 5.336e-05,
        "meta_mean_motion_ddot": 0,
        "tle_line1": "1 32316U 99025CXH 25352.54765936  .00005336  00000+0  13297-2 0  9992",
        "tle_line2": "2 32316  99.5292  19.7832 0026347 311.8098 202.8399 14.51941447958617"
      },
      "geometry": {
        "type": "Point",
        "coordinates": [
          19.620851439701404,
          5.405953334816816
        ]
      }
    },
    {
      "type": "Feature",
      "properties": {
        "norad_id": 32320,
        "name": "FENGYUN 1C DEB",
        "group": "fengyun-1c-debris",
        "lat": -79.59843478736042,
        "lon": -62.06400940466372,
        "alt_km": 797.8548869842607,
        "timestamp": "2025-12-19T04:59:48.592028+00:00",
        "meta_object_name": "FENGYUN 1C DEB",
        "meta_object_id": "1999-025CXM",
        "meta_epoch": "2025-12-16T08:51:30.683232",
        "meta_mean_motion": 14.3615851,
        "meta_eccentricity": 0.00562422,
        "meta_inclination": 100.3742,
        "meta_ra_of_asc_node": 208.1887,
        "meta_arg_of_pericenter": 37.7415,
        "meta_mean_anomaly": 322.7689,
        "meta_ephemeris_type": 0,
        "meta_classification_type": "U",
        "meta_norad_cat_id": 32320,
        "meta_element_set_no": 999,
        "meta_rev_at_epoch": 62225,
        "meta_bstar": 0.0006139878,
        "meta_mean_motion_dot": 1.763e-05,
        "meta_mean_motion_ddot": 0,
        "tle_line1": "1 32320U 99025CXM 25350.36910513  .00001763  00000+0  61399-3 0  9995",
        "tle_line2": "2 32320 100.3742 208.1887 0056242  37.7415 322.7689 14.36158510622257"
      },
      "geometry": {
        "type": "Point",
        "coordinates": [
          -62.06400940466372,
          -79.59843478736042
        ]
      }
    },
    {
      "type": "Feature",
      "properties": {
        "norad_id": 32322,
        "name": "FENGYUN 1C DEB",
        "group": "fengyun-1c-debris",
        "lat": 28.649639964875572,
        "lon": 58.76903769475049,
        "alt_km": 1008.4555445653859,
        "timestamp": "2025-12-19T04:59:48.592039+00:00",
        "meta_object_name": "FENGYUN 1C DEB",
        "meta_object_id": "1999-025CXP",
        "meta_epoch": "2025-12-14T10:53:55.069440",
        "meta_mean_motion": 13.34140206,
        "meta_eccentricity": 0.04192174,
        "meta_inclination": 98.3703,
        "meta_ra_of_asc_node": 230.2532,
        "meta_arg_of_pericenter": 93.3217,
        "meta_mean_anomaly": 271.5949,
        "meta_ephemeris_type": 0,
        "meta_classification_type": "U",
        "meta_norad_cat_id": 32322,
        "meta_element_set_no": 999,
        "meta_rev_at_epoch": 60402,
        "meta_bstar": 0.0014557048,
        "meta_mean_motion_dot": 1.161e-05,
        "meta_mean_motion_ddot": 0,
        "tle_line1": "1 32322U 99025CXP 25348.45410960  .00001161  00000+0  14557-2 0  9990",
        "tle_line2": "2 32322  98.3703 230.2532 0419217  93.3217 271.5949 13.34140206604023"
      },
      "geometry": {
        "type": "Point",
        "coordinates": [
          58.76903769475049,
          28.649639964875572
        ]
      }
    },
    {
      "type": "Feature",
      "properties": {
        "norad_id": 32323,
        "name": "FENGYUN 1C DEB",
        "group": "fengyun-1c-debris",
        "lat": -1.121107060035889,
        "lon": 136.1321523306041,
        "alt_km": 1018.6327865649719,
        "timestamp": "2025-12-19T04:59:48.592049+00:00",
        "meta_object_name": "FENGYUN 1C DEB",
        "meta_object_id": "1999-025CXQ",
        "meta_epoch": "2025-12-11T19:53:55.961952",
        "meta_mean_motion": 13.96527739,
        "meta_eccentricity": 0.0155374,
        "meta_inclination": 98.5708,
        "meta_ra_of_asc_node": 129.0851,
        "meta_arg_of_pericenter": 212.3019,
        "meta_mean_anomaly": 146.8558,
        "meta_ephemeris_type": 0,
        "meta_classification_type": "U",
        "meta_norad_cat_id": 32323,
        "meta_element_set_no": 999,
        "meta_rev_at_epoch": 60257,
        "meta_bstar": 0.0054384,
        "meta_mean_motion_dot": 8.293e-05,
        "meta_mean_motion_ddot": 0,
        "tle_line1": "1 32323U 99025CXQ 25345.82911993  .00008293  00000+0  54384-2 0  9996",
        "tle_line2": "2 32323  98.5708 129.0851 0155374 212.3019 146.8558 13.96527739602570"
      },
      "geometry": {
        "type": "Point",
        "coordinates": [
          136.1321523306041,
          -1.121107060035889
        ]
      }
    }
  ]
}